STARLINK-11159 [DTC]    
1 60905U 24154C   26178.66865157  .00002013  00000+0  21472-4 0  9999
2 60905  53.1581 309.4161 0000752  83.4283 276.6821 15.69706580105781
STARLINK-11264 [DTC]    
1 60906U 24154D   26178.79108211  .00001961  00000+0  21036-4 0  9992
2 60906  53.1575 308.7546 0000734  76.9731 283.1369 15.69708370105801
STARLINK-11226 [DTC]    
1 60907U 24154E   26178.65884048  .00001552  00000+0  17664-4 0  9995
2 60907  53.1590 309.3501 0000853  71.1398 288.9713 15.69705537105780
STARLINK-11229 [DTC]    
1 60908U 24154F   26178.78127729  .00002899  00000+0  28781-4 0  9993
2 60908  53.1584 308.6900 0000920  75.5010 284.6110 15.69708648105806
STARLINK-11265 [DTC]    
1 60909U 24154G   26178.80089838  .00001301  00000+0  15604-4 0  9992
2 60909  53.1584 308.8193 0001286  78.2748 281.8415 15.69704306105801
STARLINK-11250 [DTC]    
1 60910U 24154H   26178.77637348  .00002295  00000+0  23816-4 0  9992
2 60910  53.1592 308.6559 0000972  63.5185 296.5932 15.69688455105802
STARLINK-11190 [DTC]    
1 60911U 24154J   26178.77146408  .00000959  00000+0  12769-4 0  9995
2 60911  53.1590 308.6230 0000926  89.4249 270.6875 15.69705569105797
STARLINK-11225 [DTC]    
1 60912U 24154K   26178.76655859 -.00000028  00000+0  46265-5 0  9997
2 60912  53.1584 308.5904 0000907  75.3801 284.7318 15.69713548105799
STARLINK-11273 [DTC]    
1 60913U 24154L   26178.76165303  .00001176  00000+0  14564-4 0  9998
2 60913  53.1589 308.5568 0000915  77.3246 282.7874 15.69697913105797
STARLINK-11271 [DTC]    
1 60915U 24154N   26178.75184205  .00003236  00000+0  31566-4 0  9991
2 60915  53.1599 308.4936 0000977  81.8622 278.2506 15.69703436105794
STARLINK-32371          
1 60916U 24154P   26178.96696655  .00000165  00000+0  17089-4 0  9994
2 60916  53.1596 131.2823 0001558  92.7643 267.3536 15.31677786103224
STARLINK-32369          
1 60917U 24154Q   26178.89704329  .00000265  00000+0  20321-4 0  9999
2 60917  53.1601 131.5572 0001526  98.5807 261.5367 15.31700299103210
STARLINK-32317          
1 60918U 24154R   26178.89272919 -.00001396  00000+0 -35006-4 0  9999
2 60918  53.1605 132.2402 0001443  93.1486 266.9680 15.30198167103207
STARLINK-32367          
1 60919U 24154S   26178.90212763 -.00003958  00000+0 -12157-3 0  9990
2 60919  53.1586 131.5857 0001160 100.7458 259.3674 15.30198558103216
STARLINK-32345          
1 60920U 24154T   26178.56721049 -.00000498  00000+0 -46937-5 0  9997
2 60920  53.1603 133.7619 0001436  90.9762 269.1403 15.30191809103167
STARLINK-32356          
1 60921U 24154U   26178.89237122 -.00002910  00000+0 -82081-4 0  9998
2 60921  53.1582 131.5243 0001406  91.1461 268.9702 15.31688684103228
STARLINK-32274          
1 60922U 24154V   26178.15634248 -.00001688  00000+0 -44920-4 0  9999
2 60922  53.1603 135.4637 0001265  93.3418 266.7728 15.30178420103104
STARLINK-32373          
1 60923U 24154W   26178.16578731  .00005013  00000+0  18101-3 0  9990
2 60923  53.1597 135.5190 0001171  99.8309 260.2824 15.30247400103109
STARLINK-11239 [DTC]    
1 60924U 24155A   26178.94047762  .00003527  00000+0  33963-4 0  9995
2 60924  53.1596 158.1175 0001136  74.2133 285.9010 15.69702935105717
STARLINK-11245 [DTC]    
1 60925U 24155B   26178.67108414  .00000200  00000+0  65131-5 0  9996
2 60925  53.1601 159.2772 0001384  75.4173 284.6998 15.69707244105676
STARLINK-11244 [DTC]    
1 60926U 24155C   26178.97959412  .00007077  00000+0  63176-4 0  9997
2 60926  53.1588 157.6401 0000792  88.7961 271.3147 15.69728054105778
STARLINK-11243 [DTC]    
1 60927U 24155D   26178.92085765  .00002784  00000+0  27845-4 0  9997
2 60927  53.1601 157.9872 0001266  70.8133 289.3022 15.69698094105715
STARLINK-11238 [DTC]    
1 60928U 24155E   26178.65636710  .00000218  00000+0  66571-5 0  9990
2 60928  53.1592 159.1757 0000928 101.5503 258.5620 15.69709396105729
STARLINK-11240 [DTC]    
1 60929U 24155F   26178.96980465 -.00001339  00000+0 -61870-5 0  9998
2 60929  53.1580 157.5731 0001264  29.8920 330.2169 15.69723319105727
STARLINK-11251 [DTC]    
1 60930U 24155G   26178.96490147  .00003325  00000+0  32309-4 0  9992
2 60930  53.1577 157.5403 0000845  44.8768 315.2318 15.69692752105727
STARLINK-11204 [DTC]    
1 60931U 24155H   26178.95999829  .00003749  00000+0  35796-4 0  9996
2 60931  53.1565 157.5069 0000944  71.5213 288.5907 15.69706062105721
STARLINK-11246 [DTC]    
1 60932U 24155J   26178.19105585  .00000238  00000+0  68214-5 0  9993
2 60932  53.1579 161.2400 0000850  81.6866 278.4248 15.69713149105607
STARLINK-11207 [DTC]    
1 60933U 24155K   26178.95018216  .00006455  00000+0  58151-4 0  9997
2 60933  53.1586 157.4418 0001009 116.3885 243.7236 15.69685829105724
STARLINK-11237 [DTC]    
1 60934U 24155L   26178.24491951  .00002890  00000+0  28699-4 0  9994
2 60934  53.1567 160.8586 0000813  90.5709 269.5402 15.69709435105628
