OBJECT_NAME,OBJECT_ID,EPOCH,MEAN_MOTION,ECCENTRICITY,INCLINATION,RA_OF_ASC_NODE,ARG_OF_PERICENTER,MEAN_ANOMALY,EPHEMERIS_TYPE,CLASSIFICATION_TYPE,NORAD_CAT_ID,ELEMENT_SET_NO,REV_AT_EPOCH,BSTAR,MEAN_MOTION_DOT,MEAN_MOTION_DDOT
STARLINK-11159 [DTC],2024-154C,2026-06-27T16:02:51.495648,15.69706580,.00007525,53.1581,309.4161,83.4283,276.6821,0,U,60905,999,10578,.21471965E-4,.2013E-4,0
STARLINK-11264 [DTC],2024-154D,2026-06-27T18:59:09.494304,15.69708370,.0000734,53.1575,308.7546,76.9731,283.1369,0,U,60906,999,10580,.21036102E-4,.1961E-4,0
STARLINK-11226 [DTC],2024-154E,2026-06-27T15:48:43.817472,15.69705537,.00008534,53.1590,309.3501,71.1398,288.9713,0,U,60907,999,10578,.17664449E-4,.1552E-4,0
STARLINK-11229 [DTC],2024-154F,2026-06-27T18:45:02.357856,15.69708648,.00009205,53.1584,308.6900,75.5010,284.6110,0,U,60908,999,10580,.28781121E-4,.2899E-4,0
STARLINK-11265 [DTC],2024-154G,2026-06-27T19:13:17.620032,15.69704306,.00012869,53.1584,308.8193,78.2748,281.8415,0,U,60909,999,10580,.15603709E-4,.1301E-4,0
STARLINK-11250 [DTC],2024-154H,2026-06-27T18:37:58.668672,15.69688455,.0000972,53.1592,308.6559,63.5185,296.5932,0,U,60910,999,10580,.23815516E-4,.2295E-4,0
STARLINK-11190 [DTC],2024-154J,2026-06-27T18:30:54.496512,15.69705569,.00009266,53.1590,308.6230,89.4249,270.6875,0,U,60911,999,10579,.12768625E-4,.959E-5,0
STARLINK-11225 [DTC],2024-154K,2026-06-27T18:23:50.662176,15.69713548,.00009079,53.1584,308.5904,75.3801,284.7318,0,U,60912,999,10579,.4626485E-5,-.28E-6,0
STARLINK-11273 [DTC],2024-154L,2026-06-27T18:16:46.821792,15.69697913,.00009153,53.1589,308.5568,77.3246,282.7874,0,U,60913,999,10579,.14563589E-4,.1176E-4,0
STARLINK-11271 [DTC],2024-154N,2026-06-27T18:02:39.153120,15.69703436,.00009779,53.1599,308.4936,81.8622,278.2506,0,U,60915,999,10579,.31566447E-4,.3236E-4,0
STARLINK-32371,2024-154P,2026-06-27T23:12:25.909920,15.31677786,.0001558,53.1596,131.2823,92.7643,267.3536,0,U,60916,999,10322,.17088887E-4,.165E-5,0
STARLINK-32369,2024-154Q,2026-06-27T21:31:44.540256,15.31700299,.0001526,53.1601,131.5572,98.5807,261.5367,0,U,60917,999,10321,.20321268E-4,.265E-5,0
STARLINK-32317,2024-154R,2026-06-27T21:25:31.802016,15.30198167,.00014431,53.1605,132.2402,93.1486,266.9680,0,U,60918,999,10320,-.35006405E-4,-.1396E-4,0
STARLINK-32367,2024-154S,2026-06-27T21:39:03.827232,15.30198558,.00011603,53.1586,131.5857,100.7458,259.3674,0,U,60919,999,10321,-.12157093E-3,-.3958E-4,0
STARLINK-32345,2024-154T,2026-06-27T13:36:46.986336,15.30191809,.00014365,53.1603,133.7619,90.9762,269.1403,0,U,60920,999,10316,-.4693688E-5,-.498E-5,0
STARLINK-32356,2024-154U,2026-06-27T21:25:00.873408,15.31688684,.00014065,53.1582,131.5243,91.1461,268.9702,0,U,60921,999,10322,-.82080745E-4,-.291E-4,0
STARLINK-32274,2024-154V,2026-06-27T03:45:07.990272,15.30178420,.0001265,53.1603,135.4637,93.3418,266.7728,0,U,60922,999,10310,-.44919983E-4,-.1688E-4,0
STARLINK-32373,2024-154W,2026-06-27T03:58:44.023584,15.30247400,.00011713,53.1597,135.5190,99.8309,260.2824,0,U,60923,999,10310,.18100553E-3,.5013E-4,0
STARLINK-11239 [DTC],2024-155A,2026-06-27T22:34:17.266368,15.69702935,.00011366,53.1596,158.1175,74.2133,285.9010,0,U,60924,999,10571,.3396345E-4,.3527E-4,0
STARLINK-11245 [DTC],2024-155B,2026-06-27T16:06:21.669696,15.69707244,.00013845,53.1601,159.2772,75.4173,284.6998,0,U,60925,999,10567,.6513131E-5,.2E-5,0
STARLINK-11244 [DTC],2024-155C,2026-06-27T23:30:36.931968,15.69728054,.00007923,53.1588,157.6401,88.7961,271.3147,0,U,60926,999,10577,.63175796E-4,.7077E-4,0
STARLINK-11243 [DTC],2024-155D,2026-06-27T22:06:02.100960,15.69698094,.00012661,53.1601,157.9872,70.8133,289.3022,0,U,60927,999,10571,.27844812E-4,.2784E-4,0
STARLINK-11238 [DTC],2024-155E,2026-06-27T15:45:10.117440,15.69709396,.00009283,53.1592,159.1757,101.5503,258.5620,0,U,60928,999,10572,.6657098E-5,.218E-5,0
STARLINK-11240 [DTC],2024-155F,2026-06-27T23:16:31.121760,15.69723319,.00012642,53.1580,157.5731,29.8920,330.2169,0,U,60929,999,10572,-.6187042E-5,-.1339E-4,0
STARLINK-11251 [DTC],2024-155G,2026-06-27T23:09:27.487008,15.69692752,.00008452,53.1577,157.5403,44.8768,315.2318,0,U,60930,999,10572,.32309047E-4,.3325E-4,0
STARLINK-11204 [DTC],2024-155H,2026-06-27T23:02:23.852256,15.69706062,.00009445,53.1565,157.5069,71.5213,288.5907,0,U,60931,999,10572,.35795795E-4,.3749E-4,0
STARLINK-11246 [DTC],2024-155J,2026-06-27T04:35:07.225440,15.69713149,.000085,53.1579,161.2400,81.6866,278.4248,0,U,60932,999,10560,.6821443E-5,.238E-5,0
STARLINK-11207 [DTC],2024-155K,2026-06-27T22:48:15.738624,15.69685829,.00010097,53.1586,157.4418,116.3885,243.7236,0,U,60933,999,10572,.58150738E-4,.6455E-4,0
STARLINK-11237 [DTC],2024-155L,2026-06-27T05:52:41.045664,15.69709435,.0000813,53.1567,160.8586,90.5709,269.5402,0,U,60934,999,10562,.28699E-4,.289E-4,0
